0 FORTE
1 24920U 97047A   13282.47296474  .00000150  00000-0  87368-4 0   154
2 24920 069.9571 015.9520 0019784 102.1952 258.1387 14.25689431838115
0 FORTE
1 24920U 97047A   13283.73584758  .00000072  00000-0  54503-4 0   168
2 24920 069.9571 013.1104 0019801 100.1815 260.1541 14.25690741838299
0 FORTE
1 24920U 97047A   13285.48984889  .00000053  00000-0  46334-4 0   174
2 24920 069.9571 009.1638 0019766 097.4124 262.9244 14.25691183838546
0 FORTE
1 24920U 97047A   13286.75272837  .00000154  00000-0  89108-4 0   187
2 24920 069.9569 006.3224 0019727 095.3892 264.9480 14.25690742838723
0 FORTE
1 24920U 97047A   13288.15592809  .00000282  00000-0  14256-3 0   191
2 24920 069.9567 003.1652 0019779 093.2086 267.1298 14.25691066838924
0 FORTE
1 24920U 97047A   13289.34864772  .00000222  00000-0  11747-3 0   202
2 24920 069.9564 000.4814 0019804 091.3957 268.9432 14.25691677839092
0 FORTE
1 24920U 97047A   13290.54136758  .00000176  00000-0  98233-4 0   217
2 24920 069.9561 357.7976 0019816 089.5286 270.8106 14.25692777839264
0 FORTE
1 24920U 97047A   13291.73408689  .00000098  00000-0  65282-4 0   226
2 24920 069.9560 355.1138 0019798 087.6056 272.7332 14.25694087839435
0 FORTE
1 24920U 97047A   13293.06712444  .00000088  00000-0  61364-4 0   238
2 24920 069.9559 352.1141 0019782 085.4582 274.8798 14.25694944839629
0 FORTE
1 24920U 97047A   13294.11952137  .00000117  00000-0  73256-4 0   247
2 24920 069.9559 349.7460 0019784 083.8000 276.5374 14.25695171839772
0 FORTE
1 24920U 97047A   13295.31223698  .00000205  00000-0  11036-3 0   259
2 24920 069.9558 347.0620 0019818 081.9559 278.3810 14.25694929839940
